ONEWEB-0130             
1 47276U 20100U   26169.02848306  .00000393  00000+0  10577-2 0  9990
2 47276  87.8947 350.4848 0001774  94.0600 266.0731 13.12444047264750
ONEWEB-0131             
1 47277U 20100V   26169.02510688  .00001213  00000+0  33350-2 0  9996
2 47277  87.8938 350.5035 0001729  90.3167 269.8160 13.12438474264795
ONEWEB-0132             
1 47278U 20100W   26169.05388836 -.00000165  00000+0 -49302-3 0  9990
2 47278  87.8939 350.4996 0001746  90.9297 269.2032 13.12442635264696
ONEWEB-0133             
1 47279U 20100X   26169.07068205 -.00000455  00000+0 -12997-2 0  9999
2 47279  87.8952 350.4724 0001674  90.0141 270.1180 13.12441747264856
ONEWEB-0134             
1 47280U 20100Y   26169.04033100  .00001321  00000+0  36353-2 0  9997
2 47280  87.8953 350.4756 0001761  99.0209 261.1119 13.12448515264824
ONEWEB-0135             
1 47281U 20100Z   26169.01152546 -.00000005  00000+0 -48103-4 0  9999
2 47281  87.8938 350.5042 0001547  97.2336 262.8969 13.12445525264841
ONEWEB-0136             
1 47282U 20100AA  26169.03016904  .00000414  00000+0  11167-2 0  9999
2 47282  87.8946 350.4818 0001646 100.5313 259.6001 13.12444011264776
ONEWEB-0137             
1 47283U 20100AB  26169.06404634 -.00000418  00000+0 -11972-2 0  9994
2 47283  87.8952 350.4847 0001967  89.0815 271.0539 13.12441342264688
ONEWEB-0138             
1 47284U 20100AC  26168.96579657  .00000283  00000+0  75120-3 0  9995
2 47284  87.8948 350.5101 0001748  98.1374 261.9953 13.12442692264751
ONEWEB-0139             
1 47285U 20100AD  26169.00658194 -.00000384  00000+0 -11019-2 0  9996
2 47285  87.8946 350.4884 0001816  92.7409 267.3927 13.12443499264838
ONEWEB-0140             
1 47286U 20100AE  26169.03694915  .00000381  00000+0  10228-2 0  9997
2 47286  87.8949 350.4732 0001658  88.2796 271.8522 13.12443044264801
ONEWEB-0141             
1 47287U 20100AF  26169.00630558 -.00000473  00000+0 -13507-2 0  9995
2 47287  87.8948 350.4842 0002141  89.2394 270.8980 13.12443549264780
ONEWEB-0142             
1 47288U 20100AG  26169.07098215 -.00000521  00000+0 -14837-2 0  9992
2 47288  87.8941 350.4928 0002182  97.7198 262.4179 13.12442740264789
ONEWEB-0143             
1 47289U 20100AH  26169.00475048 -.00000448  00000+0 -12818-2 0  9994
2 47289  87.8948 350.5049 0001823  90.6925 269.4412 13.12443636264752
ONEWEB-0144             
1 47290U 20100AJ  26169.05220283 -.00000061  00000+0 -20415-3 0  9994
2 47290  87.8951 350.4694 0001884 102.8541 257.2798 13.12443061264686
ONEWEB-0145             
1 47291U 20100AK  26169.02339398  .00000300  00000+0  79738-3 0  9996
2 47291  87.8940 350.5029 0001863  93.5081 266.6260 13.12444708264878
ONEWEB-0146             
1 47292U 20100AL  26169.02000801  .00000287  00000+0  76285-3 0  9999
2 47292  87.8948 350.4954 0001664  80.5048 279.6269 13.12444716264783
ONEWEB-0147             
1 47293U 20100AM  26169.06235264 -.00000384  00000+0 -11029-2 0  9991
2 47293  87.8950 350.4683 0001671  92.6717 267.4603 13.12441115264687
ONEWEB-0115             
1 48042U 21025A   26168.93749853  .00000261  00000+0  67958-3 0  9995
2 48042  87.8958 320.0737 0001790  95.1928 264.9405 13.13470317253693
ONEWEB-0152             
1 48043U 21025B   26168.95103743  .00000344  00000+0  90678-3 0  9997
2 48043  87.8963 320.0678 0001713  93.7332 266.3993 13.13469933253658
ONEWEB-0153             
1 48044U 21025C   26168.92902492  .00000052  00000+0  10876-3 0  9991
2 48044  87.8954 320.0752 0001900  98.6910 261.4434 13.13470870253643
ONEWEB-0154             
1 48045U 21025D   26168.92563324 -.00000695  00000+0 -19384-2 0  9996
2 48045  87.8957 320.0733 0001961  95.5420 264.5933 13.13469080253600
ONEWEB-0116             
1 48046U 21025E   26168.96457186  .00000066  00000+0  14498-3 0  9991
2 48046  87.8963 320.0623 0001726  94.3204 265.8123 13.13468089253751
ONEWEB-0150             
1 48047U 21025F   26168.94088149  .00000295  00000+0  77290-3 0  9992
2 48047  87.8961 320.0645 0002014  94.0161 266.1198 13.13470197253641
ONEWEB-0107             
1 48048U 21025G   26168.94257466  .00000310  00000+0  81268-3 0  9991
2 48048  87.8963 320.0601 0002019 102.2262 257.9093 13.13470146253629
ONEWEB-0101             
1 48049U 21025H   26169.28620853 -.00000255  00000+0 -73260-3 0  9997
2 48049  87.8953 320.0070 0001811 102.2455 257.8877 13.13470258253647
ONEWEB-0113             
1 48050U 21025J   26168.92944749  .00000034  00000+0  59088-4 0  9998
2 48050  87.8957 319.9885 0001855  93.7010 266.4332 13.13893920253707
ONEWEB-0112             
1 48051U 21025K   26168.94765204  .00000283  00000+0  74012-3 0  9997
2 48051  87.8962 320.0571 0001791 104.3109 255.8219 13.13470112253694
ONEWEB-0156             
1 48052U 21025L   26168.95611228  .00000230  00000+0  59597-3 0  9998
2 48052  87.8962 320.0654 0001958  97.9214 262.2137 13.13469855253677
ONEWEB-0161             
1 48053U 21025M   26168.93071698  .00000072  00000+0  16312-3 0  9990
2 48053  87.8961 320.0718 0002010  99.6296 260.5060 13.13471136253601
