OBJECT_NAME,OBJECT_ID,EPOCH,MEAN_MOTION,ECCENTRICITY,INCLINATION,RA_OF_ASC_NODE,ARG_OF_PERICENTER,MEAN_ANOMALY,EPHEMERIS_TYPE,CLASSIFICATION_TYPE,NORAD_CAT_ID,ELEMENT_SET_NO,REV_AT_EPOCH,BSTAR,MEAN_MOTION_DOT,MEAN_MOTION_DDOT
ONEWEB-0130,2020-100U,2026-06-18T00:41:00.936384,13.12444047,.00017743,87.8947,350.4848,94.0600,266.0731,0,U,47276,999,26475,.1057713E-2,.393E-5,0
ONEWEB-0131,2020-100V,2026-06-18T00:36:09.234432,13.12438474,.00017296,87.8938,350.5035,90.3167,269.8160,0,U,47277,999,26479,.33350136E-2,.1213E-4,0
ONEWEB-0132,2020-100W,2026-06-18T01:17:35.954304,13.12442635,.00017461,87.8939,350.4996,90.9297,269.2032,0,U,47278,999,26469,-.49302494E-3,-.165E-5,0
ONEWEB-0133,2020-100X,2026-06-18T01:41:46.929120,13.12441747,.00016742,87.8952,350.4724,90.0141,270.1180,0,U,47279,999,26485,-.12996801E-2,-.455E-5,0
ONEWEB-0134,2020-100Y,2026-06-18T00:58:04.598400,13.12448515,.00017611,87.8953,350.4756,99.0209,261.1119,0,U,47280,999,26482,.36352655E-2,.1321E-4,0
ONEWEB-0135,2020-100Z,2026-06-18T00:16:35.799744,13.12445525,.00015477,87.8938,350.5042,97.2336,262.8969,0,U,47281,999,26484,-.48103225E-4,-.5E-7,0
ONEWEB-0136,2020-100AA,2026-06-18T00:43:26.605056,13.12444011,.0001646,87.8946,350.4818,100.5313,259.6001,0,U,47282,999,26477,.11167065E-2,.414E-5,0
ONEWEB-0137,2020-100AB,2026-06-18T01:32:13.603776,13.12441342,.00019673,87.8952,350.4847,89.0815,271.0539,0,U,47283,999,26468,-.11972203E-2,-.418E-5,0
ONEWEB-0138,2020-100AC,2026-06-17T23:10:44.823648,13.12442692,.0001748,87.8948,350.5101,98.1374,261.9953,0,U,47284,999,26475,.7512001E-3,.283E-5,0
ONEWEB-0139,2020-100AD,2026-06-18T00:09:28.679616,13.12443499,.00018166,87.8946,350.4884,92.7409,267.3927,0,U,47285,999,26483,-.1101889E-2,-.384E-5,0
ONEWEB-0140,2020-100AE,2026-06-18T00:53:12.406560,13.12443044,.00016584,87.8949,350.4732,88.2796,271.8522,0,U,47286,999,26480,.1022806E-2,.381E-5,0
ONEWEB-0141,2020-100AF,2026-06-18T00:09:04.802112,13.12443549,.00021411,87.8948,350.4842,89.2394,270.8980,0,U,47287,999,26478,-.13507273E-2,-.473E-5,0
ONEWEB-0142,2020-100AG,2026-06-18T01:42:12.857760,13.12442740,.00021822,87.8941,350.4928,97.7198,262.4179,0,U,47288,999,26478,-.14836882E-2,-.521E-5,0
ONEWEB-0143,2020-100AH,2026-06-18T00:06:50.441472,13.12443636,.00018232,87.8948,350.5049,90.6925,269.4412,0,U,47289,999,26475,-.12817949E-2,-.448E-5,0
ONEWEB-0144,2020-100AJ,2026-06-18T01:15:10.324512,13.12443061,.00018845,87.8951,350.4694,102.8541,257.2798,0,U,47290,999,26468,-.20415182E-3,-.61E-6,0
ONEWEB-0145,2020-100AK,2026-06-18T00:33:41.239872,13.12444708,.00018639,87.8940,350.5029,93.5081,266.6260,0,U,47291,999,26487,.79737643E-3,.3E-5,0
ONEWEB-0146,2020-100AL,2026-06-18T00:28:48.692064,13.12444716,.00016644,87.8948,350.4954,80.5048,279.6269,0,U,47292,999,26478,.7628467E-3,.287E-5,0
ONEWEB-0147,2020-100AM,2026-06-18T01:29:47.268096,13.12441115,.00016711,87.8950,350.4683,92.6717,267.4603,0,U,47293,999,26468,-.1102904E-2,-.384E-5,0
ONEWEB-0115,2021-025A,2026-06-17T22:29:59.872992,13.13470317,.00017902,87.8958,320.0737,95.1928,264.9405,0,U,48042,999,25369,.67957792E-3,.261E-5,0
ONEWEB-0152,2021-025B,2026-06-17T22:49:29.633952,13.13469933,.00017133,87.8963,320.0678,93.7332,266.3993,0,U,48043,999,25365,.90678105E-3,.344E-5,0
ONEWEB-0153,2021-025C,2026-06-17T22:17:47.753088,13.13470870,.00019005,87.8954,320.0752,98.6910,261.4434,0,U,48044,999,25364,.10875779E-3,.52E-6,0
ONEWEB-0154,2021-025D,2026-06-17T22:12:54.711936,13.13469080,.00019617,87.8957,320.0733,95.5420,264.5933,0,U,48045,999,25360,-.19383563E-2,-.695E-5,0
ONEWEB-0116,2021-025E,2026-06-17T23:08:59.008704,13.13468089,.00017266,87.8963,320.0623,94.3204,265.8123,0,U,48046,999,25375,.14497624E-3,.66E-6,0
ONEWEB-0150,2021-025F,2026-06-17T22:34:52.160736,13.13470197,.00020146,87.8961,320.0645,94.0161,266.1198,0,U,48047,999,25364,.77289886E-3,.295E-5,0
ONEWEB-0107,2021-025G,2026-06-17T22:37:18.450624,13.13470146,.00020196,87.8963,320.0601,102.2262,257.9093,0,U,48048,999,25362,.81267598E-3,.31E-5,0
ONEWEB-0101,2021-025H,2026-06-18T06:52:08.416992,13.13470258,.0001811,87.8953,320.0070,102.2455,257.8877,0,U,48049,999,25364,-.73259958E-3,-.255E-5,0
ONEWEB-0113,2021-025J,2026-06-17T22:18:24.263136,13.13893920,.00018552,87.8957,319.9885,93.7010,266.4332,0,U,48050,999,25370,.59088261E-4,.34E-6,0
ONEWEB-0112,2021-025K,2026-06-17T22:44:37.136256,13.13470112,.00017911,87.8962,320.0571,104.3109,255.8219,0,U,48051,999,25369,.74012385E-3,.283E-5,0
ONEWEB-0156,2021-025L,2026-06-17T22:56:48.100992,13.13469855,.00019582,87.8962,320.0654,97.9214,262.2137,0,U,48052,999,25367,.59596579E-3,.23E-5,0
ONEWEB-0161,2021-025M,2026-06-17T22:20:13.947072,13.13471136,.00020109,87.8961,320.0718,99.6296,260.5060,0,U,48053,999,25360,.16311827E-3,.72E-6,0
